STARLINK-36081          
1 67498U 26012F   26041.91667824 -.00085951  00000+0 -14739-2 0  9996
2 67498  43.0005 106.8883 0001262 263.0229  57.1048 15.50606852  4701
STARLINK-36558          
1 67499U 26012G   26041.91667824 -.00193656  00000+0 -33660-2 0  9993
2 67499  43.0005 106.8830 0001699 260.2884  62.2909 15.50672910  4761
STARLINK-36557          
1 67500U 26012H   26041.91667824 -.01912260  00000+0 -32385-1 0  9999
2 67500  42.9998 106.3666 0001207 282.7906 248.6339 15.54263487  4760
STARLINK-36433          
1 67501U 26012J   26041.91667824 -.01918561  00000+0 -32066-1 0  9996
2 67501  43.0002 106.3347 0001185 281.0311 263.2107 15.54631797  4761
STARLINK-36554          
1 67502U 26012K   26041.91667824  .00038946  00000+0  66797-3 0  9994
2 67502  43.0003 106.6243 0001323 260.6472 166.1497 15.50511869  4706
STARLINK-36552          
1 67503U 26012L   26041.91667824 -.01921800  00000+0 -30930-1 0  9996
2 67503  42.9998 106.2538 0001147 278.9551 297.7114 15.55651796  4767
STARLINK-36512          
1 67504U 26012M   26041.91667824 -.01866408  00000+0 -32258-1 0  9994
2 67504  43.0003 106.3579 0001323 289.3208 245.4296 15.53622393  4764
STARLINK-36545          
1 67505U 26012N   26041.91667824 -.01916888  00000+0 -32543-1 0  9990
2 67505  43.0004 106.3160 0000919 283.2131 268.2342 15.54208921  4763
STARLINK-36553          
1 67506U 26012P   26041.91667824 -.01915297  00000+0 -30920-1 0  9991
2 67506  42.9998 106.2269 0001159 269.8641 317.4645 15.55556948  4765
STARLINK-36521          
1 67507U 26012Q   26041.91667824 -.01916279  00000+0 -30991-1 0  9991
2 67507  42.9997 106.2158 0001076 273.2817 318.4174 15.55512671  4767
STARLINK-36526          
1 67508U 26012R   26041.91667824 -.01920942  00000+0 -31096-1 0  9991
2 67508  43.0001 106.2024 0001038 271.5887 325.3920 15.55496016  4764
STARLINK-36541          
1 67509U 26012S   26041.91667824 -.00084137  00000+0 -14425-2 0  9996
2 67509  43.0009 107.2536 0000414 277.8316 253.3281 15.50605757  4708
