CCSDS_OMM_VERS = 2.0
CREATION_DATE  = 
ORIGINATOR     = 

OBJECT_NAME    = STARLINK-36081
OBJECT_ID      = 2026-012F
CENTER_NAME    = EARTH
REF_FRAME      = TEME
TIME_SYSTEM    = UTC
MEAN_ELEMENT_THEORY = SGP/SGP4

EPOCH          = 2026-02-10T22:00:00.999936
MEAN_MOTION    = 15.50606852
ECCENTRICITY   = .00012624
INCLINATION    = 43.0005
RA_OF_ASC_NODE = 106.8883
ARG_OF_PERICENTER = 263.0229
MEAN_ANOMALY   = 57.1048

EPHEMERIS_TYPE = 0
CLASSIFICATION_TYPE = U
NORAD_CAT_ID   = 67498
ELEMENT_SET_NO = 999
REV_AT_EPOCH   = 470
BSTAR          = -.14739367E-2
MEAN_MOTION_DOT = -.85951E-3
MEAN_MOTION_DDOT = 0

CCSDS_OMM_VERS = 2.0
CREATION_DATE  = 
ORIGINATOR     = 

OBJECT_NAME    = STARLINK-36558
OBJECT_ID      = 2026-012G
CENTER_NAME    = EARTH
REF_FRAME      = TEME
TIME_SYSTEM    = UTC
MEAN_ELEMENT_THEORY = SGP/SGP4

EPOCH          = 2026-02-10T22:00:00.999936
MEAN_MOTION    = 15.50672910
ECCENTRICITY   = .00016997
INCLINATION    = 43.0005
RA_OF_ASC_NODE = 106.8830
ARG_OF_PERICENTER = 260.2884
MEAN_ANOMALY   = 62.2909

EPHEMERIS_TYPE = 0
CLASSIFICATION_TYPE = U
NORAD_CAT_ID   = 67499
ELEMENT_SET_NO = 999
REV_AT_EPOCH   = 476
BSTAR          = -.33659605E-2
MEAN_MOTION_DOT = -.193656E-2
MEAN_MOTION_DDOT = 0

CCSDS_OMM_VERS = 2.0
CREATION_DATE  = 
ORIGINATOR     = 

OBJECT_NAME    = STARLINK-36557
OBJECT_ID      = 2026-012H
CENTER_NAME    = EARTH
REF_FRAME      = TEME
TIME_SYSTEM    = UTC
MEAN_ELEMENT_THEORY = SGP/SGP4

EPOCH          = 2026-02-10T22:00:00.999936
MEAN_MOTION    = 15.54263487
ECCENTRICITY   = .00012078
INCLINATION    = 42.9998
RA_OF_ASC_NODE = 106.3666
ARG_OF_PERICENTER = 282.7906
MEAN_ANOMALY   = 248.6339

EPHEMERIS_TYPE = 0
CLASSIFICATION_TYPE = U
NORAD_CAT_ID   = 67500
ELEMENT_SET_NO = 999
REV_AT_EPOCH   = 476
BSTAR          = -.32384869E-1
MEAN_MOTION_DOT = -.191226E-1
MEAN_MOTION_DDOT = 0

CCSDS_OMM_VERS = 2.0
CREATION_DATE  = 
ORIGINATOR     = 

OBJECT_NAME    = STARLINK-36433
OBJECT_ID      = 2026-012J
CENTER_NAME    = EARTH
REF_FRAME      = TEME
TIME_SYSTEM    = UTC
MEAN_ELEMENT_THEORY = SGP/SGP4

EPOCH          = 2026-02-10T22:00:00.999936
MEAN_MOTION    = 15.54631797
ECCENTRICITY   = .00011852
INCLINATION    = 43.0002
RA_OF_ASC_NODE = 106.3347
ARG_OF_PERICENTER = 281.0311
MEAN_ANOMALY   = 263.2107

EPHEMERIS_TYPE = 0
CLASSIFICATION_TYPE = U
NORAD_CAT_ID   = 67501
ELEMENT_SET_NO = 999
REV_AT_EPOCH   = 476
BSTAR          = -.3206587E-1
MEAN_MOTION_DOT = -.1918561E-1
MEAN_MOTION_DDOT = 0

CCSDS_OMM_VERS = 2.0
CREATION_DATE  = 
ORIGINATOR     = 

OBJECT_NAME    = STARLINK-36554
OBJECT_ID      = 2026-012K
CENTER_NAME    = EARTH
REF_FRAME      = TEME
TIME_SYSTEM    = UTC
MEAN_ELEMENT_THEORY = SGP/SGP4

EPOCH          = 2026-02-10T22:00:00.999936
MEAN_MOTION    = 15.50511869
ECCENTRICITY   = .00013235
INCLINATION    = 43.0003
RA_OF_ASC_NODE = 106.6243
ARG_OF_PERICENTER = 260.6472
MEAN_ANOMALY   = 166.1497

EPHEMERIS_TYPE = 0
CLASSIFICATION_TYPE = U
NORAD_CAT_ID   = 67502
ELEMENT_SET_NO = 999
REV_AT_EPOCH   = 470
BSTAR          = .66797245E-3
MEAN_MOTION_DOT = .38946E-3
MEAN_MOTION_DDOT = 0

CCSDS_OMM_VERS = 2.0
CREATION_DATE  = 
ORIGINATOR     = 

OBJECT_NAME    = STARLINK-36552
OBJECT_ID      = 2026-012L
CENTER_NAME    = EARTH
REF_FRAME      = TEME
TIME_SYSTEM    = UTC
MEAN_ELEMENT_THEORY = SGP/SGP4

EPOCH          = 2026-02-10T22:00:00.999936
MEAN_MOTION    = 15.55651796
ECCENTRICITY   = .00011473
INCLINATION    = 42.9998
RA_OF_ASC_NODE = 106.2538
ARG_OF_PERICENTER = 278.9551
MEAN_ANOMALY   = 297.7114

EPHEMERIS_TYPE = 0
CLASSIFICATION_TYPE = U
NORAD_CAT_ID   = 67503
ELEMENT_SET_NO = 999
REV_AT_EPOCH   = 476
BSTAR          = -.30929916E-1
MEAN_MOTION_DOT = -.19218E-1
MEAN_MOTION_DDOT = 0

CCSDS_OMM_VERS = 2.0
CREATION_DATE  = 
ORIGINATOR     = 

OBJECT_NAME    = STARLINK-36512
OBJECT_ID      = 2026-012M
CENTER_NAME    = EARTH
REF_FRAME      = TEME
TIME_SYSTEM    = UTC
MEAN_ELEMENT_THEORY = SGP/SGP4

EPOCH          = 2026-02-10T22:00:00.999936
MEAN_MOTION    = 15.53622393
ECCENTRICITY   = .00013236
INCLINATION    = 43.0003
RA_OF_ASC_NODE = 106.3579
ARG_OF_PERICENTER = 289.3208
MEAN_ANOMALY   = 245.4296

EPHEMERIS_TYPE = 0
CLASSIFICATION_TYPE = U
NORAD_CAT_ID   = 67504
ELEMENT_SET_NO = 999
REV_AT_EPOCH   = 476
BSTAR          = -.32258297E-1
MEAN_MOTION_DOT = -.1866408E-1
MEAN_MOTION_DDOT = 0

CCSDS_OMM_VERS = 2.0
CREATION_DATE  = 
ORIGINATOR     = 

OBJECT_NAME    = STARLINK-36545
OBJECT_ID      = 2026-012N
CENTER_NAME    = EARTH
REF_FRAME      = TEME
TIME_SYSTEM    = UTC
MEAN_ELEMENT_THEORY = SGP/SGP4

EPOCH          = 2026-02-10T22:00:00.999936
MEAN_MOTION    = 15.54208921
ECCENTRICITY   = .00009199
INCLINATION    = 43.0004
RA_OF_ASC_NODE = 106.3160
ARG_OF_PERICENTER = 283.2131
MEAN_ANOMALY   = 268.2342

EPHEMERIS_TYPE = 0
CLASSIFICATION_TYPE = U
NORAD_CAT_ID   = 67505
ELEMENT_SET_NO = 999
REV_AT_EPOCH   = 476
BSTAR          = -.32543057E-1
MEAN_MOTION_DOT = -.1916888E-1
MEAN_MOTION_DDOT = 0

CCSDS_OMM_VERS = 2.0
CREATION_DATE  = 
ORIGINATOR     = 

OBJECT_NAME    = STARLINK-36553
OBJECT_ID      = 2026-012P
CENTER_NAME    = EARTH
REF_FRAME      = TEME
TIME_SYSTEM    = UTC
MEAN_ELEMENT_THEORY = SGP/SGP4

EPOCH          = 2026-02-10T22:00:00.999936
MEAN_MOTION    = 15.55556948
ECCENTRICITY   = .00011598
INCLINATION    = 42.9998
RA_OF_ASC_NODE = 106.2269
ARG_OF_PERICENTER = 269.8641
MEAN_ANOMALY   = 317.4645

EPHEMERIS_TYPE = 0
CLASSIFICATION_TYPE = U
NORAD_CAT_ID   = 67506
ELEMENT_SET_NO = 999
REV_AT_EPOCH   = 476
BSTAR          = -.30920313E-1
MEAN_MOTION_DOT = -.1915297E-1
MEAN_MOTION_DDOT = 0

CCSDS_OMM_VERS = 2.0
CREATION_DATE  = 
ORIGINATOR     = 

OBJECT_NAME    = STARLINK-36521
OBJECT_ID      = 2026-012Q
CENTER_NAME    = EARTH
REF_FRAME      = TEME
TIME_SYSTEM    = UTC
MEAN_ELEMENT_THEORY = SGP/SGP4

EPOCH          = 2026-02-10T22:00:00.999936
MEAN_MOTION    = 15.55512671
ECCENTRICITY   = .00010762
INCLINATION    = 42.9997
RA_OF_ASC_NODE = 106.2158
ARG_OF_PERICENTER = 273.2817
MEAN_ANOMALY   = 318.4174

EPHEMERIS_TYPE = 0
CLASSIFICATION_TYPE = U
NORAD_CAT_ID   = 67507
ELEMENT_SET_NO = 999
REV_AT_EPOCH   = 476
BSTAR          = -.30990506E-1
MEAN_MOTION_DOT = -.1916279E-1
MEAN_MOTION_DDOT = 0

CCSDS_OMM_VERS = 2.0
CREATION_DATE  = 
ORIGINATOR     = 

OBJECT_NAME    = STARLINK-36526
OBJECT_ID      = 2026-012R
CENTER_NAME    = EARTH
REF_FRAME      = TEME
TIME_SYSTEM    = UTC
MEAN_ELEMENT_THEORY = SGP/SGP4

EPOCH          = 2026-02-10T22:00:00.999936
MEAN_MOTION    = 15.55496016
ECCENTRICITY   = .00010384
INCLINATION    = 43.0001
RA_OF_ASC_NODE = 106.2024
ARG_OF_PERICENTER = 271.5887
MEAN_ANOMALY   = 325.3920

EPHEMERIS_TYPE = 0
CLASSIFICATION_TYPE = U
NORAD_CAT_ID   = 67508
ELEMENT_SET_NO = 999
REV_AT_EPOCH   = 476
BSTAR          = -.31096034E-1
MEAN_MOTION_DOT = -.1920942E-1
MEAN_MOTION_DDOT = 0

CCSDS_OMM_VERS = 2.0
CREATION_DATE  = 
ORIGINATOR     = 

OBJECT_NAME    = STARLINK-36541
OBJECT_ID      = 2026-012S
CENTER_NAME    = EARTH
REF_FRAME      = TEME
TIME_SYSTEM    = UTC
MEAN_ELEMENT_THEORY = SGP/SGP4

EPOCH          = 2026-02-10T22:00:00.999936
MEAN_MOTION    = 15.50605757
ECCENTRICITY   = .00004143
INCLINATION    = 43.0009
RA_OF_ASC_NODE = 107.2536
ARG_OF_PERICENTER = 277.8316
MEAN_ANOMALY   = 253.3281

EPHEMERIS_TYPE = 0
CLASSIFICATION_TYPE = U
NORAD_CAT_ID   = 67509
ELEMENT_SET_NO = 999
REV_AT_EPOCH   = 470
BSTAR          = -.14425169E-2
MEAN_MOTION_DOT = -.84137E-3
MEAN_MOTION_DDOT = 0

